NORAD_CAT_ID,OBJECT_NAME,OBJECT_TYPE,EPOCH,MEAN_MOTION,ECCENTRICITY,INCLINATION,RA_OF_ASC_NODE,ARG_OF_PERICENTER,MEAN_ANOMALY,BSTAR,MEAN_MOTION_DOT,MEAN_MOTION_DDOT,TLE_LINE0,TLE_LINE1,TLE_LINE2,SEMIMAJOR_AXIS,PERIOD,APOGEE,PERIGEE,DECAYED
51896.0,STARLINK-3593,PAYLOAD,2023-01-19 05:52:03,15.08854926,0.0001431999999999,53.2159,101.2344,75.0546,285.0605,0.00073705,0.00011466,0.0,0 STARLINK-3593,1 51896U 22022AW  23019.24448580  .00011466  00000-0  73705-3 0  9990,2 51896  53.2159 101.2344 0001432  75.0546 285.0605 15.08854926 50377,6917.835,95.437,540.69,538.7090000000001,0.0
51896.0,STARLINK-3593,PAYLOAD,2023-01-19 12:13:36,15.08859559,0.0001541999999999,53.2158,100.0447,78.8459,281.2706,0.0014222,0.00022431,0.0,0 STARLINK-3593,1 51896U 22022AW  23019.50944453  .00022431  00000-0  14222-2 0  9991,2 51896  53.2158 100.0447 0001542  78.8459 281.2706 15.08859559 50415,6917.821,95.436,540.752,538.619,0.0
51896.0,STARLINK-3593,PAYLOAD,2023-01-19 21:45:54,15.08846549,0.0001901,53.2159,98.2606,78.044,282.0766,0.0022694,0.00036021,0.0,0 STARLINK-3593,1 51896U 22022AW  23019.90688613  .00036021  00000-0  22694-2 0  9990,2 51896  53.2159  98.2606 0001901  78.0440 282.0766 15.08846549 50478,6917.86,95.437,541.04,538.41,0.0
51896.0,STARLINK-3593,PAYLOAD,2023-01-20 12:04:23,15.08857626,0.0001751,53.2158,95.5855,95.375,264.7442,0.0019603,0.00031063,0.0,0 STARLINK-3593,1 51896U 22022AW  23020.50304450  .00031063  00000-0  19603-2 0  9999,2 51896  53.2158  95.5855 0001751  95.3750 264.7442 15.08857626 50568,6917.826999999999,95.436,540.903,538.48,0.0
51896.0,STARLINK-3593,PAYLOAD,2023-01-21 05:33:37,15.08860458,0.0002993999999999,53.2152,92.3145,84.7454,275.3879,0.0018533,0.00029348,0.0,0 STARLINK-3593,1 51896U 22022AW  23021.23168950  .00029348  00000-0  18533-2 0  9997,2 51896  53.2152  92.3145 0002994  84.7454 275.3879 15.08860458 50673,6917.818,95.436,541.754,537.612,0.0
51896.0,STARLINK-3593,PAYLOAD,2023-01-21 10:19:47,15.08846791,0.0001327,53.215,91.4219,93.57,266.5444,0.0017114,0.00027059,0.0,0 STARLINK-3593,1 51896U 22022AW  23021.43040783  .00027059  00000-0  17114-2 0  9993,2 51896  53.2150  91.4219 0001327  93.5700 266.5444 15.08846791 50702,6917.86,95.437,540.643,538.807,0.0
51896.0,STARLINK-3593,PAYLOAD,2023-01-21 13:30:33,15.08856843,0.0001279,53.2149,90.8271,92.0442,268.0696,0.0026411,0.00042015,0.0,0 STARLINK-3593,1 51896U 22022AW  23021.56288769  .00042015  00000-0  26411-2 0  9994,2 51896  53.2149  90.8271 0001279  92.0442 268.0696 15.08856843 50721,6917.829000000001,95.436,540.5790000000001,538.809,0.0
51896.0,STARLINK-3593,PAYLOAD,2023-01-22 13:21:19,15.08877034,0.0001344,53.2144,86.3668,94.066,266.0486,0.0017406,0.0002755,0.0,0 STARLINK-3593,1 51896U 22022AW  23022.55648000  .00027550  00000-0  17406-2 0  9993,2 51896  53.2144  86.3668 0001344  94.0660 266.0486 15.08877034 50879,6917.767,95.435,540.562,538.702,0.0
51896.0,STARLINK-3593,PAYLOAD,2023-01-23 03:39:49,15.08844303,0.0002836999999999,53.215,83.6909,78.4732,281.6579,0.001394,0.00021971,0.0,0 STARLINK-3593,1 51896U 22022AW  23023.15265175  .00021971  00000-0  13940-2 0  9998,2 51896  53.2150  83.6909 0002837  78.4732 281.6579 15.08844303 50967,6917.866999999999,95.437,541.695,537.77,0.0
51896.0,STARLINK-3593,PAYLOAD,2023-01-24 03:30:36,15.08842974,0.000155,53.2144,79.2298,85.6056,274.5113,0.0011007999999999,0.00017276,0.0,0 STARLINK-3593,1 51896U 22022AW  23024.14625640  .00017276  00000-0  11008-2 0  9991,2 51896  53.2144  79.2298 0001550  85.6056 274.5113 15.08842974 51117,6917.871,95.437,540.809,538.664,0.0
51896.0,STARLINK-3593,PAYLOAD,2023-01-25 03:21:23,15.08849261,0.0001885999999999,53.2142,74.7691,100.2581,259.8624,0.00051759,7.961e-05,0.0,0 STARLINK-3593,1 51896U 22022AW  23025.13985587  .00007961  00000-0  51759-3 0  9998,2 51896  53.2142  74.7691 0001886 100.2581 259.8624 15.08849261 51266,6917.852,95.437,541.0219999999999,538.4119999999999,0.0
51896.0,STARLINK-3593,PAYLOAD,2023-01-25 09:42:56,15.08838402,0.0001460999999999,53.2142,73.5785,97.073,263.0429,0.0001906999999999,2.748e-05,0.0,0 STARLINK-3593,1 51896U 22022AW  23025.40481789  .00002748  00000-0  19070-3 0  9991,2 51896  53.2142  73.5785 0001461  97.0730 263.0429 15.08838402 51305,6917.885,95.438,540.761,538.74,0.0
51896.0,STARLINK-3593,PAYLOAD,2023-01-26 09:33:42,15.08847997,0.0001443999999999,53.215,69.1172,102.3232,257.7921,0.00017141,2.442e-05,0.0,0 STARLINK-3593,1 51896U 22022AW  23026.39841383  .00002442  00000-0  17141-3 0  9998,2 51896  53.2150  69.1172 0001444 102.3232 257.7921 15.08847997 51455,6917.856,95.437,540.72,538.722,0.0
51896.0,STARLINK-3593,PAYLOAD,2023-01-27 03:02:57,15.08840844,0.0001665,53.2167,65.8478,108.7814,251.3359,0.00013186,1.811e-05,0.0,0 STARLINK-3593,1 51896U 22022AW  23027.12705713  .00001811  00000-0  13186-3 0  9990,2 51896  53.2167  65.8478 0001665 108.7814 251.3359 15.08840844 51567,6917.878000000001,95.438,540.895,538.591,0.0
51896.0,STARLINK-3593,PAYLOAD,2023-01-27 12:35:16,15.08845964,0.00014,53.2156,64.0622,102.6766,257.4382,0.00016608,2.357e-05,0.0,0 STARLINK-3593,1 51896U 22022AW  23027.52449206  .00002357  00000-0  16608-3 0  9994,2 51896  53.2156  64.0622 0001400 102.6766 257.4382 15.08845964 51621,6917.861999999999,95.437,540.696,538.759,0.0
51896.0,STARLINK-3593,PAYLOAD,2023-01-28 02:53:44,15.08834538,0.000139,53.216,61.3836,111.613,248.501,-1.3905e-05,-5.09e-06,0.0,0 STARLINK-3593,1 51896U 22022AW  23028.12065961 -.00000509  00000-0 -13905-4 0  9990,2 51896  53.2160  61.3836 0001390 111.6130 248.5010 15.08834538 51710,6917.897,95.438,540.724,538.8,0.0
51896.0,STARLINK-3593,PAYLOAD,2023-01-28 10:50:40,15.08841819,0.0001387,53.2155,59.8971,109.4649,250.6493,8.7011e-05,1.097e-05,0.0,0 STARLINK-3593,1 51896U 22022AW  23028.45185619  .00001097  00000-0  87011-4 0  9999,2 51896  53.2155  59.8971 0001387 109.4649 250.6493 15.08841819 51766,6917.875,95.437,540.699,538.78,0.0
51896.0,STARLINK-3593,PAYLOAD,2023-01-28 18:47:35,15.08844059,0.0001186,53.215,58.4107,94.4024,265.7103,3.2163e-05,2.24e-06,0.0,0 STARLINK-3593,1 51896U 22022AW  23028.78305421  .00000224  00000-0  32163-4 0  9999,2 51896  53.2150  58.4107 0001186  94.4024 265.7103 15.08844059 51814,6917.868,95.437,540.553,538.913,0.0
51896.0,STARLINK-3593,PAYLOAD,2023-01-29 18:38:23,15.08839629,0.0001335,53.2157,53.9516,88.8421,271.2724,7.5264e-05,9.1e-06,0.0,0 STARLINK-3593,1 51896U 22022AW  23029.77665857  .00000910  00000-0  75264-4 0  9992,2 51896  53.2157  53.9516 0001335  88.8421 271.2724 15.08839629 51963,6917.882,95.438,540.67,538.823,0.0
51896.0,STARLINK-3593,PAYLOAD,2023-01-30 10:32:14,15.08843628,0.0001304,53.2158,50.9769,91.1566,268.9576,0.00011906,1.608e-05,0.0,0 STARLINK-3593,1 51896U 22022AW  23030.43905853  .00001608  00000-0  11906-3 0  9997,2 51896  53.2158  50.9769 0001304  91.1566 268.9576 15.08843628 52068,6917.869,95.437,540.636,538.832,0.0
51896.0,STARLINK-3593,PAYLOAD,2023-01-30 18:29:10,15.08839086,0.0001303,53.2161,49.4891,86.9019,273.2122,4.774e-05,4.72e-06,0.0,0 STARLINK-3593,1 51896U 22022AW  23030.77026125  .00000472  00000-0  47740-4 0  9994,2 51896  53.2161  49.4891 0001303  86.9019 273.2122 15.08839086 52110,6917.883,95.438,540.65,538.847,0.0
51896.0,STARLINK-3593,PAYLOAD,2023-01-31 04:01:29,15.08837262,0.0001192,53.2162,47.7056,88.2764,271.8365,9.6582e-05,1.249e-05,0.0,0 STARLINK-3593,1 51896U 22022AW  23031.16770377  .00001249  00000-0  96582-4 0  9994,2 51896  53.2162  47.7056 0001192  88.2764 271.8365 15.08837262 52176,6917.889,95.438,540.578,538.929,0.0
51896.0,STARLINK-3593,PAYLOAD,2023-01-31 10:23:01,15.08846326,0.0001327,53.2162,46.5156,95.9873,264.127,9.4495e-05,1.217e-05,0.0,0 STARLINK-3593,1 51896U 22022AW  23031.43265755  .00001217  00000-0  94495-4 0  9999,2 51896  53.2162  46.5156 0001327  95.9873 264.1270 15.08846326 52216,6917.861,95.437,540.644,538.808,0.0
51896.0,STARLINK-3593,PAYLOAD,2023-01-31 21:30:43,15.08839431,0.0001324,53.2159,44.4349,87.563,272.5514,7.6226e-05,9.25e-06,0.0,0 STARLINK-3593,1 51896U 22022AW  23031.89634229  .00000925  00000-0  76226-4 0  9992,2 51896  53.2159  44.4349 0001324  87.5630 272.5514 15.08839431 52288,6917.882,95.438,540.663,538.831,0.0
51896.0,STARLINK-3593,PAYLOAD,2023-02-01 07:03:02,15.08849167,0.0001244,53.2161,42.6501,95.9734,264.14,0.00013117,1.801e-05,0.0,0 STARLINK-3593,1 51896U 22022AW  23032.29377450  .00001801  00000-0  13117-3 0  9990,2 51896  53.2161  42.6501 0001244  95.9734 264.1400 15.08849167 52345,6917.852,95.437,540.578,538.857,0.0
51896.0,STARLINK-3593,PAYLOAD,2023-02-01 18:10:44,15.08845658,0.0001238,53.2163,40.5686,90.0994,270.014,6.3124e-05,7.17e-06,0.0,0 STARLINK-3593,1 51896U 22022AW  23032.75745693  .00000717  00000-0  63124-4 0  9998,2 51896  53.2163  40.5686 0001238  90.0994 270.0140 15.08845658 52411,6917.863,95.437,540.585,538.872,0.0
51896.0,STARLINK-3593,PAYLOAD,2023-02-02 03:43:03,15.08834087,0.0001191,53.2161,38.7841,101.2695,258.8431,3.8717e-05,3.28e-06,0.0,0 STARLINK-3593,1 51896U 22022AW  23033.15490453  .00000328  00000-0  38717-4 0  9992,2 51896  53.2161  38.7841 0001191 101.2695 258.8431 15.08834087 52479,6917.898,95.438,540.587,538.94,0.0
51896.0,STARLINK-3593,PAYLOAD,2023-02-02 06:53:49,15.08837156,0.0001237,53.2161,38.1902,93.9248,266.1886,6.0868e-05,6.81e-06,0.0,0 STARLINK-3593,1 51896U 22022AW  23033.28738356  .00000681  00000-0  60868-4 0  9997,2 51896  53.2161  38.1902 0001237  93.9248 266.1886 15.08837156 52491,6917.889,95.438,540.61,538.898,0.0
51896.0,STARLINK-3593,PAYLOAD,2023-02-03 06:44:36,15.08843518,0.0001164,53.2167,33.7312,89.2582,270.8544,8.251e-05,1.026e-05,0.0,0 STARLINK-3593,1 51896U 22022AW  23034.28097876  .00001026  00000-0  82510-4 0  9995,2 51896  53.2167  33.7312 0001164  89.2582 270.8544 15.08843518 52640,6917.87,95.437,540.54,538.929,0.0
